*******************************************************************************
 Revised: April 12, 2021             1I/'Oumuamua (A/2017 U1)         2023-Feb-20 16:08:33
Rec #:50479970 (+COV) Soln.date: 2018-Jun-26_12:17:57    # obs: 207 (2017-2018)
 
IAU76/J2000 helio. ecliptic osc. elements (au, days, deg., period=Julian yrs):
 
  EPOCH=  2458080.5 ! 2017-Nov-23.00 (TDB)         Residual RMS= .063527
   EC= 1.201133796102373   QR= .2559115812959116   TP= 2458006.0073213754
   OM= 24.59690955523242   W=  241.8105360304898   IN= 122.7417062847286
   A= -1.27234500742808    MA= 51.15761979369358   ADIST= 9.999999E99
   PER= 9.999999E99        N= .686746949           ANGMOM= .012910695
   DAN= 1.30212            DDN= .35938             L= 159.3364991
   B= -47.84677            MOID= .0958212          TP= 2017-Sep-09.5073213754
 
Asteroid physical parameters (km, seconds, rotational period in hours):
   GM= n.a.                RAD= n.a.               ROTPER= 7.937
   H= 22.08                G= .150                 B-V= n.a.
                           ALBEDO= n.a.            STYP= n.a.
 
Asteroid non-gravitational force model (AMRAT= m^2/kg;A1,A2,A3=au/d^2;R0=au):
   AMRAT=  0.
   A1= 2.790193367004E-7   A2= 1.441264152527E-8   A3= 1.573922634125E-8
 Non-standard or simulated/proxy model:
   ALN=  .04083733261  NK=  2.6      NM=  2.       NN=  3.       R0=  5.
 
ASTEROID comments: 
1: soln ref.= JPL#16
2: source=ORB; Sol. 7c, Micheli et al. 2018
*******************************************************************************


*******************************************************************************
Ephemeris / WWW_USER Mon Feb 20 16:08:33 2023 Pasadena, USA      / Horizons
*******************************************************************************
Target body name: 1I/'Oumuamua (A/2017 U1)        {source: JPL#16}
Center body name: Sun (10)                        {source: DE441}
Center-site name: BODY CENTER
*******************************************************************************
Start time      : A.D. 2017-Aug-01 00:00:00.0000 TDB
Stop  time      : A.D. 2019-Jan-01 00:00:00.0000 TDB
Step-size       : 1440 minutes
*******************************************************************************
Center geodetic : 0.0, 0.0, 0.0                   {E-lon(deg),Lat(deg),Alt(km)}
Center cylindric: 0.0, 0.0, 0.0                   {E-lon(deg),Dxy(km),Dz(km)}
Center radii    : 696000.0, 696000.0, 696000.0 km {Equator_a, b, pole_c}
Small perturbers: Yes                             {source: SB441-N16}
Output units    : KM-S
Calendar mode   : Mixed Julian/Gregorian
Output type     : GEOMETRIC cartesian states
Output format   : 3 (position, velocity, LT, range, range-rate)
Reference frame : Ecliptic of J2000.0
*******************************************************************************
Initial IAU76/J2000 heliocentric ecliptic osculating elements (au, days, deg.):
  EPOCH=  2458080.5 ! 2017-Nov-23.00 (TDB)         Residual RMS= .063527       
   EC= 1.201133796102373   QR= .2559115812959116   TP= 2458006.0073213754      
   OM= 24.59690955523242   W=  241.8105360304898   IN= 122.7417062847286       
  Equivalent ICRF heliocentric cartesian coordinates (au, au/d):
   X= 1.889136186533479E+00  Y= 5.222899434623107E-01  Z= 5.088057830311858E-01
  VX= 2.106502285864550E-02 VY= 3.535022471254454E-04 VZ= 8.998631872968255E-03
Asteroid physical parameters (km, seconds, rotational period in hours):        
   GM= n.a.                RAD= n.a.               ROTPER= 7.937               
   H= 22.08                G= .150                 B-V= n.a.                   
                           ALBEDO= n.a.            STYP= n.a.                  
Asteroid non-gravitational force model (AMRAT= m^2/kg;A1,A2,A3=au/d^2;R0=au):  
   AMRAT=  0.                                                                  
   A1= 2.790193367004E-7   A2= 1.441264152527E-8   A3= 1.573922634125E-8       
 Non-standard or simulated/proxy model:                                        
   ALN=  .04083733261  NK=  2.6      NM=  2.       NN=  3.       R0=  5.       
*******************************************************************************
            JDTDB,            Calendar Date (TDB),                      X,                      Y,                      Z,                     VX,                     VY,                     VZ,                     LT,                     RG,                     RR,
**************************************************************************************************************************************************************************************************************************************************************************
$$SOE
2458289.500000000, A.D. 2018-Jun-20 00:00:00.0000,  8.454939152228779E+08,  1.943634621254789E+08,  2.724614838942408E+08,  2.863063758837922E+01,  4.443254499641413E+00,  1.225079347775178E+01,  3.033182480222532E+03,  9.093252313084494E+08,  3.124130353947556E+01,
2458290.500000000, A.D. 2018-Jun-21 00:00:00.0000,  8.479670468521625E+08,  1.947472321378415E+08,  2.735197732068377E+08,  2.861779253570775E+01,  4.440314031039565E+00,  1.224664777712463E+01,  3.042184396455880E+03,  9.120239379027548E+08,  3.122876827042202E+01,
2458291.500000000, A.D. 2018-Jun-22 00:00:00.0000,  8.504390719709822E+08,  1.951307489795585E+08,  2.745777052262859E+08,  2.860502380052541E+01,  4.437394031831992E+00,  1.224252277647760E+01,  3.051182710167047E+03,  9.147215644880807E+08,  3.121630322742141E+01,
2458292.500000000, A.D. 2018-Jun-23 00:00:00.0000,  8.529099971422883E+08,  1.955140144098424E+08,  2.756352817342077E+08,  2.859233066966390E+01,  4.434494286198367E+00,  1.223841831736421E+01,  3.060177441505440E+03,  9.174181171050671E+08,  3.120390778933769E+01,
2458293.500000000, A.D. 2018-Jun-24 00:00:00.0000,  8.553798288678366E+08,  1.958970301693781E+08,  2.766925044986023E+08,  2.857971243969117E+01,  4.431614581093035E+00,  1.223433424287750E+01,  3.069168610442613E+03,  9.201136017410355E+08,  3.119158134308154E+01,
2458294.500000000, A.D. 2018-Jun-25 00:00:00.0000,  8.578485735890187E+08,  1.962797979805658E+08,  2.777493752739781E+08,  2.856716841668262E+01,  4.428754706309189E+00,  1.223027039764696E+01,  3.078156236774572E+03,  9.228080243306789E+08,  3.117932328344842E+01,
2458295.500000000, A.D. 2018-Jun-26 00:00:00.0000,  8.603162376876736E+08,  1.966623195477676E+08,  2.788058958014861E+08,  2.855469791599222E+01,  4.425914454514016E+00,  1.222622662783361E+01,  3.087140340124017E+03,  9.255013907567351E+08,  3.116713301294887E+01,
2458296.500000000, A.D. 2018-Jun-27 00:00:00.0000,  8.627828274868793E+08,  1.970445965575570E+08,  2.798620678090516E+08,  2.854230026202840E+01,  4.423093621259607E+00,  1.222220278112305E+01,  3.096120939942545E+03,  9.281937068506460E+08,  3.115500994163659E+01,
2458297.500000000, A.D. 2018-Jun-28 00:00:00.0000,  8.652483492517270E+08,  1.974266306789672E+08,  2.809178930115051E+08,  2.852997478803844E+01,  4.420292004974676E+00,  1.221819870671665E+01,  3.105098055512796E+03,  9.308849783932015E+08,  3.114295348693903E+01,
2458298.500000000, A.D. 2018-Jun-29 00:00:00.0000,  8.677128091900737E+08,  1.978084235637395E+08,  2.819733731107135E+08,  2.851772083590275E+01,  4.417509406941219E+00,  1.221421425532103E+01,  3.114071705950555E+03,  9.335752111151702E+08,  3.113096307349251E+01,
2458299.500000000, A.D. 2018-Jun-30 00:00:00.0000,  8.701762134532816E+08,  1.981899768465678E+08,  2.830285097957093E+08,  2.850553775594024E+01,  4.414745631260255E+00,  1.221024927913600E+01,  3.123041910206811E+03,  9.362644106979151E+08,  3.111903813298439E+01,
2458300.500000000, A.D. 2018-Jul-01 00:00:00.0000,  8.726385681369380E+08,  1.985712921453405E+08,  2.840833047428188E+08,  2.849342490672444E+01,  4.412000484809480E+00,  1.220630363184135E+01,  3.132008687069758E+03,  9.389525827739955E+08,  3.110717810400229E+01,
2458301.500000000, A.D. 2018-Jul-02 00:00:00.0000,  8.750998792815613E+08,  1.989523710613788E+08,  2.851377596157902E+08,  2.848138165491027E+01,  4.409273777195606E+00,  1.220237716858256E+01,  3.140972055166772E+03,  9.416397329277582E+08,  3.109538243189103E+01,
2458302.500000000, A.D. 2018-Jul-03 00:00:00.0000,  8.775601528732919E+08,  1.993332151796697E+08,  2.861918760659187E+08,  2.846940737507025E+01,  4.406565320703298E+00,  1.219846974595587E+01,  3.149932032966335E+03,  9.443258666959145E+08,  3.108365056861694E+01,
2458303.500000000, A.D. 2018-Jul-04 00:00:00.0000,  8.800193948445702E+08,  1.997138260690956E+08,  2.872456557321717E+08,  2.845750144954036E+01,  4.403874930242135E+00,  1.219458122199255E+01,  3.158888638779923E+03,  9.470109895681072E+08,  3.107198197263967E+01,
2458304.500000000, A.D. 2018-Jul-05 00:00:00.0000,  8.824776110748000E+08,  2.000942052826583E+08,  2.882991002413115E+08,  2.844566326827325E+01,  4.401202423292955E+00,  1.219071145614300E+01,  3.167841890763863E+03,  9.496951069874660E+08,  3.106037610879011E+01,
2458305.500000000, A.D. 2018-Jul-06 00:00:00.0000,  8.849348073910016E+08,  2.004743543576993E+08,  2.893522112080181E+08,  2.843389222869929E+01,  4.398547619854382E+00,  1.218686030926043E+01,  3.176791806921150E+03,  9.523782243511529E+08,  3.104883244815481E+01,
2458306.500000000, A.D. 2018-Jul-07 00:00:00.0000,  8.873909895684506E+08,  2.008542748161148E+08,  2.904049902350091E+08,  2.842218773559295E+01,  4.395910342389366E+00,  1.218302764358439E+01,  3.185738405103233E+03,  9.550603470108982E+08,  3.103735046796483E+01,
2458307.500000000, A.D. 2018-Jul-08 00:00:00.0000,  8.898461633313088E+08,  2.012339681645664E+08,  2.914574389131589E+08,  2.841054920094714E+01,  4.393290415773911E+00,  1.217921332272425E+01,  3.194681703011777E+03,  9.577414802735265E+08,  3.102592965149171E+01,
